CCSDS_OEM_VERS = 1.0
CREATION_DATE  = 2017-05-11T11:15:29
ORIGINATOR     = GMAT USER

META_START
OBJECT_NAME          = MOPSSat_alt_35785_km_RAAN_90_069
OBJECT_ID            = SatId
CENTER_NAME          = Earth
REF_FRAME            = EME2000
TIME_SYSTEM          = UTC
START_TIME           = 2017-01-01T00:00:00.000
USEABLE_START_TIME   = 2017-01-01T00:00:00.000
USEABLE_STOP_TIME    = 2017-01-02T00:00:00.000
STOP_TIME            = 2017-01-02T00:00:00.000
INTERPOLATION        = Lagrange
INTERPOLATION_DEGREE = 7 
META_STOP


                                                                                   

2017-01-01T07:01:40.000  -4.057835342709548e+04  -1.149507698584283e+04   8.550289470167540e-01   8.350316471249911e-01  -2.958213117350111e+00   3.589380796583801e-05
2017-01-01T07:01:50.000  -4.056999233040453e+04  -1.152465606070526e+04   8.553877186725890e-01   8.371875872095059e-01  -2.957601490512554e+00   3.586051453753486e-05
2017-01-01T07:02:00.000  -4.056160967657638e+04  -1.155422901138127e+04   8.557461571708793e-01   8.393430780923790e-01  -2.956988293414783e+00   3.582717662037218e-05
2017-01-01T07:02:10.000  -4.055320547014118e+04  -1.158379582205469e+04   8.561042620653900e-01   8.414981186228914e-01  -2.956373526391070e+00   3.579379422504159e-05
2017-01-01T07:02:20.000  -4.054477971563196e+04  -1.161335647694733e+04   8.564620329104266e-01   8.436527076530927e-01  -2.955757189775889e+00   3.576036736223951e-05
2017-01-01T07:02:30.000  -4.053633241757321e+04  -1.164291096035321e+04   8.568194692612292e-01   8.458068440403068e-01  -2.955139283903086e+00   3.572689604261296e-05
2017-01-01T07:02:40.000  -4.052786358050711e+04  -1.167245925654908e+04   8.571765706729015e-01   8.479605266406015e-01  -2.954519809107796e+00   3.569338027686675e-05
2017-01-01T07:02:50.000  -4.051937320887992e+04  -1.170200135018309e+04   8.575333367050804e-01   8.501137543371214e-01  -2.953898765718124e+00   3.565982007530614e-05
2017-01-01T07:03:00.000  -4.051086130717916e+04  -1.173153722580364e+04   8.578897669162667e-01   8.522665260057464e-01  -2.953276154065197e+00   3.562621544838750e-05
2017-01-01T07:03:10.000  -4.050232787988207e+04  -1.176106686803750e+04   8.582458608659737e-01   8.544188405280742e-01  -2.952651974479374e+00   3.559256640651125e-05
2017-01-01T07:03:20.000  -4.049377293165484e+04  -1.179059026089939e+04   8.586016181063979e-01   8.565706967410976e-01  -2.952026227304834e+00   3.555887296081814e-05
2017-01-01T07:03:30.000  -4.048519646715361e+04  -1.182010738848249e+04   8.589570381907496e-01   8.587220934875344e-01  -2.951398912885009e+00   3.552513512239350e-05
2017-01-01T07:03:40.000  -4.047659849107540e+04  -1.184961823478015e+04   8.593121206711027e-01   8.608730296028320e-01  -2.950770031566321e+00   3.549135290247289e-05
2017-01-01T07:03:50.000  -4.046797900802353e+04  -1.187912278415782e+04   8.596668651040984e-01   8.630235039495645e-01  -2.950139583688324e+00   3.545752631190010e-05
2017-01-01T07:04:00.000  -4.045933802261829e+04  -1.190862102096352e+04   8.600212710462332e-01   8.651735153890416e-01  -2.949507569591814e+00   3.542365536157436e-05
2017-01-01T07:04:10.000  -4.045067553947158e+04  -1.193811292961768e+04   8.603753380549450e-01   8.673230627878552e-01  -2.948873989616962e+00   3.538974006234693e-05
2017-01-01T07:04:20.000  -4.044199156319548e+04  -1.196759849457795e+04   8.607290656881741e-01   8.694721450153178e-01  -2.948238844103947e+00   3.535578042506226e-05
2017-01-01T07:04:30.000  -4.043328609840834e+04  -1.199707770032309e+04   8.610824535041826e-01   8.716207609422845e-01  -2.947602133393400e+00   3.532177646057527e-05
2017-01-01T07:04:40.000  -4.042455914974519e+04  -1.202655053131768e+04   8.614355010611325e-01   8.737689094385825e-01  -2.946963857827165e+00   3.528772817979319e-05
2017-01-01T07:04:50.000  -4.041581072186133e+04  -1.205601697199524e+04   8.617882079168693e-01   8.759165893717832e-01  -2.946324017748565e+00   3.525363559369016e-05
2017-01-01T07:05:00.000  -4.040704081944423e+04  -1.208547700672405e+04   8.621405736285296e-01   8.780637996047053e-01  -2.945682613503262e+00   3.521949871335196e-05
2017-01-01T07:05:10.000  -4.039824944718612e+04  -1.211493061989642e+04   8.624925977536033e-01   8.802105390019267e-01  -2.945039645437268e+00   3.518531754987125e-05
2017-01-01T07:05:20.000  -4.038943660990209e+04  -1.214437779554126e+04   8.628442798453283e-01   8.823568064015445e-01  -2.944395113905570e+00   3.515109211480043e-05
2017-01-01T07:05:30.000  -4.038060231238750e+04  -1.217381851779375e+04   8.631956194582789e-01   8.845026006494062e-01  -2.943749019261704e+00   3.511682241960403e-05
2017-01-01T07:05:40.000  -4.037174655947081e+04  -1.220325277072062e+04   8.635466161462838e-01   8.866479205863771e-01  -2.943101361861619e+00   3.508250847586123e-05
2017-01-01T07:05:50.000  -4.036286935581009e+04  -1.223268053899731e+04   8.638972694705049e-01   8.887927650976928e-01  -2.942452142048801e+00   3.504815029448372e-05
2017-01-01T07:06:00.000  -4.035397070609568e+04  -1.226210180723246e+04   8.642475789913766e-01   8.909371330637266e-01  -2.941801360169087e+00   3.501374788649469e-05
2017-01-01T07:06:10.000  -4.034505061500483e+04  -1.229151656012112e+04   8.645975442704398e-01   8.930810233711570e-01  -2.941149016567348e+00   3.497930126285455e-05
2017-01-01T07:06:20.000  -4.033610908731405e+04  -1.232092478206293e+04   8.649471648657602e-01   8.952244348851329e-01  -2.940495111595713e+00   3.494481043489025e-05
2017-01-01T07:06:30.000  -4.032714612781656e+04  -1.235032645744580e+04   8.652964403353453e-01   8.973673664699587e-01  -2.939839645607520e+00   3.491027541398129e-05
2017-01-01T07:06:40.000  -4.031816174132097e+04  -1.237972157064566e+04   8.656453702371227e-01   8.995098169890671e-01  -2.939182618957228e+00   3.487569621155319e-05
2017-01-01T07:06:50.000  -4.030915593274057e+04  -1.240911010574459e+04   8.659939541256333e-01   9.016517852844840e-01  -2.938524032006949e+00   3.484107283942795e-05
2017-01-01T07:07:00.000  -4.030012870697425e+04  -1.243849204691080e+04   8.663421915565066e-01   9.037932702045139e-01  -2.937863885117729e+00   3.480640530935851e-05
2017-01-01T07:07:10.000  -4.029108006895308e+04  -1.246786737824882e+04   8.666900820846914e-01   9.059342705928286e-01  -2.937202178652963e+00   3.477169363321103e-05
2017-01-01T07:07:20.000  -4.028201002343617e+04  -1.249723608446247e+04   8.670376252723097e-01   9.080747853367832e-01  -2.936538912963464e+00   3.473693782216965e-05
2017-01-01T07:07:30.000  -4.027291857521458e+04  -1.252659815019185e+04   8.673848206807998e-01   9.102148133190947e-01  -2.935874088402374e+00   3.470213788753127e-05
2017-01-01T07:07:40.000  -4.026380572906559e+04  -1.255595356016338e+04   8.677316678727014e-01   9.123543534287770e-01  -2.935207705321826e+00   3.466729384052498e-05
2017-01-01T07:07:50.000  -4.025467148986779e+04  -1.258530229880871e+04   8.680781664071138e-01   9.144934045333661e-01  -2.934539764081348e+00   3.463240569276935e-05
2017-01-01T07:08:00.000  -4.024551586251645e+04  -1.261464435054789e+04   8.684243158430797e-01   9.166319654995565e-01  -2.933870265041686e+00   3.459747345593157e-05
2017-01-01T07:08:10.000  -4.023633885192241e+04  -1.264397969978909e+04   8.687701157395695e-01   9.187700351931823e-01  -2.933199208564716e+00   3.456249714172932e-05
2017-01-01T07:08:20.000  -4.022714046310305e+04  -1.267330833064732e+04   8.691155656522004e-01   9.209076124587200e-01  -2.932526595020093e+00   3.452747676226115e-05
2017-01-01T07:08:30.000  -4.021792070106082e+04  -1.270263022732362e+04   8.694606651376716e-01   9.230446961469182e-01  -2.931852424776385e+00   3.449241232955975e-05
2017-01-01T07:08:40.000  -4.020867957083163e+04  -1.273194537395273e+04   8.698054137519793e-01   9.251812851037016e-01  -2.931176698204590e+00   3.445730385577099e-05
2017-01-01T07:08:50.000  -4.019941707727291e+04  -1.276125375527575e+04   8.701498110583282e-01   9.273173782191914e-01  -2.930499415662651e+00   3.442215135236042e-05
2017-01-01T07:09:00.000  -4.019013322527587e+04  -1.279055535596574e+04   8.704938566191963e-01   9.294529743785589e-01  -2.929820577510978e+00   3.438695483090838e-05
2017-01-01T07:09:10.000  -4.018082801971095e+04  -1.281985016080191e+04   8.708375499983879e-01   9.315880724747133e-01  -2.929140184108450e+00   3.435171430290634e-05
2017-01-01T07:09:20.000  -4.017150146557399e+04  -1.284913815420105e+04   8.711808907555071e-01   9.337226713741584e-01  -2.928458235823114e+00   3.431642978030283e-05
2017-01-01T07:09:30.000  -4.016215356786593e+04  -1.287841932060434e+04   8.715238784505226e-01   9.358567699451802e-01  -2.927774733023382e+00   3.428110127505574e-05
2017-01-01T07:09:40.000  -4.015278433161961e+04  -1.290769364439099e+04   8.718665126427513e-01   9.379903670515530e-01  -2.927089676079989e+00   3.424572879923069e-05
2017-01-01T07:09:50.000  -4.014339376189386e+04  -1.293696110990217e+04   8.722087928911550e-01   9.401234615542835e-01  -2.926403065365567e+00   3.421031236498656e-05
2017-01-01T07:10:00.000  -4.013398186376286e+04  -1.296622170146972e+04   8.725507187546646e-01   9.422560523137069e-01  -2.925714901253865e+00   3.417485198452738e-05
2017-01-01T07:10:10.000  -4.012454864231298e+04  -1.299547540342684e+04   8.728922897923029e-01   9.443881381902584e-01  -2.925025184119507e+00   3.413934767009318e-05
2017-01-01T07:10:20.000  -4.011509410260963e+04  -1.302472220021283e+04   8.732335055644190e-01   9.465197180521185e-01  -2.924333914335590e+00   3.410379943382657e-05
2017-01-01T07:10:30.000  -4.010561824971896e+04  -1.305396207630321e+04   8.735743656318616e-01   9.486507907701062e-01  -2.923641092275253e+00   3.406820728786302e-05
2017-01-01T07:10:40.000  -4.009612108870799e+04  -1.308319501620965e+04   8.739148695559810e-01   9.507813552176841e-01  -2.922946718311690e+00   3.403257124432886e-05
